CCSDS_OMM_VERS = 2.0
CREATION_DATE  = 
ORIGINATOR     = 

OBJECT_NAME    = STARLINK-36796
OBJECT_ID      = 2026-026B
CENTER_NAME    = EARTH
REF_FRAME      = TEME
TIME_SYSTEM    = UTC
MEAN_ELEMENT_THEORY = SGP/SGP4

EPOCH          = 2026-02-27T04:00:01.999584
MEAN_MOTION    = 15.80825895
ECCENTRICITY   = .000143
INCLINATION    = 97.2851
RA_OF_ASC_NODE = 112.2844
ARG_OF_PERICENTER = 62.5554
MEAN_ANOMALY   = 233.5752

EPHEMERIS_TYPE = 0
CLASSIFICATION_TYPE = U
NORAD_CAT_ID   = 67722
ELEMENT_SET_NO = 999
REV_AT_EPOCH   = 362
BSTAR          = -.28326E-3
MEAN_MOTION_DOT = -.5409E-3
MEAN_MOTION_DDOT = 0

CCSDS_OMM_VERS = 2.0
CREATION_DATE  = 
ORIGINATOR     = 

OBJECT_NAME    = STARLINK-36369
OBJECT_ID      = 2026-026C
CENTER_NAME    = EARTH
REF_FRAME      = TEME
TIME_SYSTEM    = UTC
MEAN_ELEMENT_THEORY = SGP/SGP4

EPOCH          = 2026-02-27T04:00:01.999584
MEAN_MOTION    = 15.80755343
ECCENTRICITY   = .0001524
INCLINATION    = 97.2851
RA_OF_ASC_NODE = 112.2876
ARG_OF_PERICENTER = 119.3318
MEAN_ANOMALY   = 182.6620

EPHEMERIS_TYPE = 0
CLASSIFICATION_TYPE = U
NORAD_CAT_ID   = 67723
ELEMENT_SET_NO = 999
REV_AT_EPOCH   = 362
BSTAR          = .34461E-3
MEAN_MOTION_DOT = .66187E-3
MEAN_MOTION_DDOT = 0

CCSDS_OMM_VERS = 2.0
CREATION_DATE  = 
ORIGINATOR     = 

OBJECT_NAME    = STARLINK-36752
OBJECT_ID      = 2026-026D
CENTER_NAME    = EARTH
REF_FRAME      = TEME
TIME_SYSTEM    = UTC
MEAN_ELEMENT_THEORY = SGP/SGP4

EPOCH          = 2026-02-27T04:00:01.999584
MEAN_MOTION    = 15.80845801
ECCENTRICITY   = .0001136
INCLINATION    = 97.2847
RA_OF_ASC_NODE = 112.2914
ARG_OF_PERICENTER = 72.8647
MEAN_ANOMALY   = 236.7405

EPHEMERIS_TYPE = 0
CLASSIFICATION_TYPE = U
NORAD_CAT_ID   = 67724
ELEMENT_SET_NO = 999
REV_AT_EPOCH   = 362
BSTAR          = -.48456E-3
MEAN_MOTION_DOT = -.9211E-3
MEAN_MOTION_DDOT = 0

CCSDS_OMM_VERS = 2.0
CREATION_DATE  = 
ORIGINATOR     = 

OBJECT_NAME    = STARLINK-36754
OBJECT_ID      = 2026-026E
CENTER_NAME    = EARTH
REF_FRAME      = TEME
TIME_SYSTEM    = UTC
MEAN_ELEMENT_THEORY = SGP/SGP4

EPOCH          = 2026-02-27T04:00:01.999584
MEAN_MOTION    = 15.80825351
ECCENTRICITY   = .0001358
INCLINATION    = 97.2851
RA_OF_ASC_NODE = 112.2931
ARG_OF_PERICENTER = 90.2873
MEAN_ANOMALY   = 225.3441

EPHEMERIS_TYPE = 0
CLASSIFICATION_TYPE = U
NORAD_CAT_ID   = 67725
ELEMENT_SET_NO = 999
REV_AT_EPOCH   = 362
BSTAR          = -.3492E-3
MEAN_MOTION_DOT = -.66552E-3
MEAN_MOTION_DDOT = 0

CCSDS_OMM_VERS = 2.0
CREATION_DATE  = 
ORIGINATOR     = 

OBJECT_NAME    = STARLINK-36755
OBJECT_ID      = 2026-026F
CENTER_NAME    = EARTH
REF_FRAME      = TEME
TIME_SYSTEM    = UTC
MEAN_ELEMENT_THEORY = SGP/SGP4

EPOCH          = 2026-02-27T04:00:01.999584
MEAN_MOTION    = 15.80805638
ECCENTRICITY   = .0001183
INCLINATION    = 97.2852
RA_OF_ASC_NODE = 112.2955
ARG_OF_PERICENTER = 91.2134
MEAN_ANOMALY   = 232.0956

EPHEMERIS_TYPE = 0
CLASSIFICATION_TYPE = U
NORAD_CAT_ID   = 67726
ELEMENT_SET_NO = 999
REV_AT_EPOCH   = 362
BSTAR          = -.2345E-3
MEAN_MOTION_DOT = -.44808E-3
MEAN_MOTION_DDOT = 0

CCSDS_OMM_VERS = 2.0
CREATION_DATE  = 
ORIGINATOR     = 

OBJECT_NAME    = STARLINK-36741
OBJECT_ID      = 2026-026G
CENTER_NAME    = EARTH
REF_FRAME      = TEME
TIME_SYSTEM    = UTC
MEAN_ELEMENT_THEORY = SGP/SGP4

EPOCH          = 2026-02-27T04:00:01.999584
MEAN_MOTION    = 15.80827348
ECCENTRICITY   = .0001548
INCLINATION    = 97.2852
RA_OF_ASC_NODE = 112.2975
ARG_OF_PERICENTER = 66.8482
MEAN_ANOMALY   = 261.3796

EPHEMERIS_TYPE = 0
CLASSIFICATION_TYPE = U
NORAD_CAT_ID   = 67727
ELEMENT_SET_NO = 999
REV_AT_EPOCH   = 362
BSTAR          = -.23677E-3
MEAN_MOTION_DOT = -.45285E-3
MEAN_MOTION_DDOT = 0

CCSDS_OMM_VERS = 2.0
CREATION_DATE  = 
ORIGINATOR     = 

OBJECT_NAME    = STARLINK-36757
OBJECT_ID      = 2026-026H
CENTER_NAME    = EARTH
REF_FRAME      = TEME
TIME_SYSTEM    = UTC
MEAN_ELEMENT_THEORY = SGP/SGP4

EPOCH          = 2026-02-27T04:00:01.999584
MEAN_MOTION    = 15.80795364
ECCENTRICITY   = .0001711
INCLINATION    = 97.2852
RA_OF_ASC_NODE = 112.2993
ARG_OF_PERICENTER = 64.2684
MEAN_ANOMALY   = 270.8773

EPHEMERIS_TYPE = 0
CLASSIFICATION_TYPE = U
NORAD_CAT_ID   = 67728
ELEMENT_SET_NO = 999
REV_AT_EPOCH   = 362
BSTAR          = .12823E-4
MEAN_MOTION_DOT = .2313E-4
MEAN_MOTION_DDOT = 0

CCSDS_OMM_VERS = 2.0
CREATION_DATE  = 
ORIGINATOR     = 

OBJECT_NAME    = STARLINK-36751
OBJECT_ID      = 2026-026J
CENTER_NAME    = EARTH
REF_FRAME      = TEME
TIME_SYSTEM    = UTC
MEAN_ELEMENT_THEORY = SGP/SGP4

EPOCH          = 2026-02-27T04:00:01.999584
MEAN_MOTION    = 15.80775243
ECCENTRICITY   = .0001785
INCLINATION    = 97.2853
RA_OF_ASC_NODE = 112.3056
ARG_OF_PERICENTER = 107.6345
MEAN_ANOMALY   = 241.6107

EPHEMERIS_TYPE = 0
CLASSIFICATION_TYPE = U
NORAD_CAT_ID   = 67729
ELEMENT_SET_NO = 999
REV_AT_EPOCH   = 362
BSTAR          = .24852E-3
MEAN_MOTION_DOT = .47635E-3
MEAN_MOTION_DDOT = 0

CCSDS_OMM_VERS = 2.0
CREATION_DATE  = 
ORIGINATOR     = 

OBJECT_NAME    = STARLINK-36747
OBJECT_ID      = 2026-026K
CENTER_NAME    = EARTH
REF_FRAME      = TEME
TIME_SYSTEM    = UTC
MEAN_ELEMENT_THEORY = SGP/SGP4

EPOCH          = 2026-02-27T04:00:01.999584
MEAN_MOTION    = 15.80792859
ECCENTRICITY   = .0001302
INCLINATION    = 97.2853
RA_OF_ASC_NODE = 112.3027
ARG_OF_PERICENTER = 99.2300
MEAN_ANOMALY   = 241.4582

EPHEMERIS_TYPE = 0
CLASSIFICATION_TYPE = U
NORAD_CAT_ID   = 67730
ELEMENT_SET_NO = 999
REV_AT_EPOCH   = 362
BSTAR          = -.14343E-4
MEAN_MOTION_DOT = -.2885E-4
MEAN_MOTION_DDOT = 0

CCSDS_OMM_VERS = 2.0
CREATION_DATE  = 
ORIGINATOR     = 

OBJECT_NAME    = STARLINK-36315
OBJECT_ID      = 2026-026L
CENTER_NAME    = EARTH
REF_FRAME      = TEME
TIME_SYSTEM    = UTC
MEAN_ELEMENT_THEORY = SGP/SGP4

EPOCH          = 2026-02-27T04:00:01.999584
MEAN_MOTION    = 15.80793474
ECCENTRICITY   = .0001394
INCLINATION    = 97.2852
RA_OF_ASC_NODE = 112.3083
ARG_OF_PERICENTER = 79.8648
MEAN_ANOMALY   = 274.8423

EPHEMERIS_TYPE = 0
CLASSIFICATION_TYPE = U
NORAD_CAT_ID   = 67731
ELEMENT_SET_NO = 999
REV_AT_EPOCH   = 362
BSTAR          = .13031E-3
MEAN_MOTION_DOT = .24864E-3
MEAN_MOTION_DDOT = 0

CCSDS_OMM_VERS = 2.0
CREATION_DATE  = 
ORIGINATOR     = 

OBJECT_NAME    = STARLINK-36260
OBJECT_ID      = 2026-026M
CENTER_NAME    = EARTH
REF_FRAME      = TEME
TIME_SYSTEM    = UTC
MEAN_ELEMENT_THEORY = SGP/SGP4

EPOCH          = 2026-02-27T04:00:01.999584
MEAN_MOTION    = 15.80800396
ECCENTRICITY   = .0001585
INCLINATION    = 97.2857
RA_OF_ASC_NODE = 112.3101
ARG_OF_PERICENTER = 117.9868
MEAN_ANOMALY   = 243.4613

EPHEMERIS_TYPE = 0
CLASSIFICATION_TYPE = U
NORAD_CAT_ID   = 67732
ELEMENT_SET_NO = 999
REV_AT_EPOCH   = 362
BSTAR          = -.21091E-4
MEAN_MOTION_DOT = -.4177E-4
MEAN_MOTION_DDOT = 0

CCSDS_OMM_VERS = 2.0
CREATION_DATE  = 
ORIGINATOR     = 

OBJECT_NAME    = STARLINK-36746
OBJECT_ID      = 2026-026N
CENTER_NAME    = EARTH
REF_FRAME      = TEME
TIME_SYSTEM    = UTC
MEAN_ELEMENT_THEORY = SGP/SGP4

EPOCH          = 2026-02-27T04:00:01.999584
MEAN_MOTION    = 15.72969315
ECCENTRICITY   = .0001404
INCLINATION    = 97.2783
RA_OF_ASC_NODE = 112.3007
ARG_OF_PERICENTER = 65.1605
MEAN_ANOMALY   = 274.3348

EPHEMERIS_TYPE = 0
CLASSIFICATION_TYPE = U
NORAD_CAT_ID   = 67733
ELEMENT_SET_NO = 999
REV_AT_EPOCH   = 362
BSTAR          = -.16468E-1
MEAN_MOTION_DOT = -.1937411E-1
MEAN_MOTION_DDOT = 0

