STARLINK-36796          
1 67722U 26026B   26058.16668981 -.00054090  00000+0 -28326-3 0  9999
2 67722  97.2851 112.2844 0001430  62.5554 233.5752 15.80825895  3624
STARLINK-36369          
1 67723U 26026C   26058.16668981  .00066187  00000+0  34461-3 0  9995
2 67723  97.2851 112.2876 0001524 119.3318 182.6620 15.80755343  3621
STARLINK-36752          
1 67724U 26026D   26058.16668981 -.00092110  00000+0 -48456-3 0  9992
2 67724  97.2847 112.2914 0001136  72.8647 236.7405 15.80845801  3628
STARLINK-36754          
1 67725U 26026E   26058.16668981 -.00066552  00000+0 -34920-3 0  9995
2 67725  97.2851 112.2931 0001358  90.2873 225.3441 15.80825351  3626
STARLINK-36755          
1 67726U 26026F   26058.16668981 -.00044808  00000+0 -23450-3 0  9992
2 67726  97.2852 112.2955 0001183  91.2134 232.0956 15.80805638  3623
STARLINK-36741          
1 67727U 26026G   26058.16668981 -.00045285  00000+0 -23677-3 0  9994
2 67727  97.2852 112.2975 0001548  66.8482 261.3796 15.80827348  3624
STARLINK-36757          
1 67728U 26026H   26058.16668981  .00002313  00000+0  12823-4 0  9990
2 67728  97.2852 112.2993 0001711  64.2684 270.8773 15.80795364  3625
STARLINK-36751          
1 67729U 26026J   26058.16668981  .00047635  00000+0  24852-3 0  9991
2 67729  97.2853 112.3056 0001785 107.6345 241.6107 15.80775243  3626
STARLINK-36747          
1 67730U 26026K   26058.16668981 -.00002885  00000+0 -14343-4 0  9998
2 67730  97.2853 112.3027 0001302  99.2300 241.4582 15.80792859  3625
STARLINK-36315          
1 67731U 26026L   26058.16668981  .00024864  00000+0  13031-3 0  9990
2 67731  97.2852 112.3083 0001394  79.8648 274.8423 15.80793474  3625
STARLINK-36260          
1 67732U 26026M   26058.16668981 -.00004177  00000+0 -21091-4 0  9994
2 67732  97.2857 112.3101 0001585 117.9868 243.4613 15.80800396  3627
STARLINK-36746          
1 67733U 26026N   26058.16668981 -.01937411  00000+0 -16468-1 0  9991
2 67733  97.2783 112.3007 0001404  65.1605 274.3348 15.72969315  3620
